NORAD_CAT_ID,OBJECT_NAME,OBJECT_TYPE,EPOCH,MEAN_MOTION,ECCENTRICITY,INCLINATION,RA_OF_ASC_NODE,ARG_OF_PERICENTER,MEAN_ANOMALY,BSTAR,MEAN_MOTION_DOT,MEAN_MOTION_DDOT,TLE_LINE0,TLE_LINE1,TLE_LINE2,SEMIMAJOR_AXIS,PERIOD,APOGEE,PERIGEE,DECAYED
52609.0,STARLINK-3997,PAYLOAD,2022-09-29 17:35:30,15.08824087,0.0001819,53.2175,161.8255,51.7715,308.344,-0.00030093,-5.072e-05,0.0,0 STARLINK-3997,1 52609U 22052M   22272.73299013 -.00005072  00000-0 -30093-3 0  9996,2 52609  53.2175 161.8255 0001819  51.7715 308.3440 15.08824087 21479,6917.929,95.439,541.052,538.536,0.0
52609.0,STARLINK-3997,PAYLOAD,2022-09-29 20:46:16,15.08825471,0.0001740999999999,53.2175,161.2307,51.4037,308.7111,-0.0001959,-3.403e-05,0.0,0 STARLINK-3997,1 52609U 22052M   22272.86547082 -.00003403  00000-0 -19590-3 0  9997,2 52609  53.2175 161.2307 0001741  51.4037 308.7111 15.08825471 21128,6917.925,95.438,540.994,538.585,0.0
52609.0,STARLINK-3997,PAYLOAD,2022-09-30 01:32:26,15.088278099999998,0.0001823,53.2175,160.339,49.5829,310.5322,-7.850800000000001e-06,-4.13e-06,0.0,0 STARLINK-3997,1 52609U 22052M   22273.06419322 -.00000413  00000-0 -78508-5 0  9999,2 52609  53.2175 160.3390 0001823  49.5829 310.5322 15.08827810 21155,6917.918000000002,95.438,541.044,538.5219999999998,0.0
52609.0,STARLINK-3997,PAYLOAD,2022-09-30 17:26:17,15.08846467,0.0001774,53.2173,157.3655,48.1705,311.9438,0.00092172,0.00014414,0.0,0 STARLINK-3997,1 52609U 22052M   22273.72659683  .00014414  00000-0  92172-3 0  9993,2 52609  53.2173 157.3655 0001774  48.1705 311.9438 15.08846467 21620,6917.861,95.437,540.953,538.498,0.0
52609.0,STARLINK-3997,PAYLOAD,2022-09-30 20:37:04,15.08854884,0.0001797,53.2179,156.7714,49.5007,310.6142,0.001165,0.00018309,0.0,0 STARLINK-3997,1 52609U 22052M   22273.85907569  .00018309  00000-0  11650-2 0  9994,2 52609  53.2179 156.7714 0001797  49.5007 310.6142 15.08854884 21271,6917.835,95.437,540.943,538.457,0.0
52609.0,STARLINK-3997,PAYLOAD,2022-10-01 09:20:08,15.08856789,0.0001865,53.2178,154.3929,47.8502,312.2649,0.00056724,8.755e-05,0.0,0 STARLINK-3997,1 52609U 22052M   22274.38899190  .00008755  00000-0  56724-3 0  9999,2 52609  53.2178 154.3929 0001865  47.8502 312.2649 15.08856789 21354,6917.829000000002,95.436,540.984,538.404,0.0
52609.0,STARLINK-3997,PAYLOAD,2022-10-01 15:41:41,15.0885616,0.0001879,53.2172,153.2029,50.3146,309.8011,0.00037966,5.762e-05,0.0,0 STARLINK-3997,1 52609U 22052M   22274.65394985  .00005762  00000-0  37966-3 0  9993,2 52609  53.2172 153.2029 0001879  50.3146 309.8011 15.08856160 21768,6917.831,95.437,540.996,538.396,0.0
52609.0,STARLINK-3997,PAYLOAD,2022-10-01 20:27:50,15.08847632,0.0001837,53.217,152.3089,54.3446,305.7717,9.4724e-05,1.22e-05,0.0,0 STARLINK-3997,1 52609U 22052M   22274.85267002  .00001220  00000-0  94724-4 0  9995,2 52609  53.2170 152.3089 0001837  54.3446 305.7717 15.08847632 21428,6917.857,95.437,540.993,538.451,0.0
52609.0,STARLINK-3997,PAYLOAD,2022-10-02 01:14:00,15.08848949,0.0001881,53.2176,151.4184,49.2727,310.8428,0.00025175,3.722e-05,0.0,0 STARLINK-3997,1 52609U 22052M   22275.05139151  .00003722  00000-0  25175-3 0  9993,2 52609  53.2176 151.4184 0001881  49.2727 310.8428 15.08848949 21826,6917.853,95.437,541.019,538.4169999999998,0.0
52609.0,STARLINK-3997,PAYLOAD,2022-10-02 09:10:55,15.08849126,0.0001911,53.2176,149.9317,49.6009,310.515,0.00018979,2.734e-05,0.0,0 STARLINK-3997,1 52609U 22052M   22275.38258966  .00002734  00000-0  18979-3 0  9991,2 52609  53.2176 149.9317 0001911  49.6009 310.5150 15.08849126 21509,6917.852,95.437,541.039,538.395,0.0
52609.0,STARLINK-3997,PAYLOAD,2022-10-02 20:18:38,15.08830223,0.0001956999999999,53.2177,147.85,50.277,309.8394,-0.00013115,-2.374e-05,0.0,0 STARLINK-3997,1 52609U 22052M   22275.84627934 -.00002374  00000-0 -13115-3 0  9996,2 52609  53.2177 147.8500 0001957  50.2770 309.8394 15.08830223 21570,6917.91,95.438,541.129,538.4209999999998,0.0
52609.0,STARLINK-3997,PAYLOAD,2022-10-03 01:04:48,15.08839062,0.0001926,53.2193,146.9578,51.52,308.5965,-7.2054e-05,-1.435e-05,0.0,0 STARLINK-3997,1 52609U 22052M   22276.04500314 -.00001435  00000-0 -72054-4 0  9996,2 52609  53.2193 146.9578 0001926  51.5200 308.5965 15.08839062 21975,6917.8830000000025,95.438,541.081,538.4159999999998,0.0
52609.0,STARLINK-3997,PAYLOAD,2022-10-03 09:01:43,15.08844887,0.0001939,53.2199,145.4714,52.6336,307.4833,2.3424e-05,8.5e-07,0.0,0 STARLINK-3997,1 52609U 22052M   22276.37619723  .00000085  00000-0  23424-4 0  9992,2 52609  53.2199 145.4714 0001939  52.6336 307.4833 15.08844887 21651,6917.865,95.437,541.072,538.389,0.0
52609.0,STARLINK-3997,PAYLOAD,2022-10-03 18:34:01,15.0885431,0.0001937,53.2195,143.6873,51.8533,308.2634,0.00015792,2.227e-05,0.0,0 STARLINK-3997,1 52609U 22052M   22276.77362756  .00002227  00000-0  15792-3 0  9995,2 52609  53.2195 143.6873 0001937  51.8533 308.2634 15.08854310 21718,6917.837,95.437,541.0419999999998,538.362,0.0
52609.0,STARLINK-3997,PAYLOAD,2022-10-03 21:44:47,15.08855799,0.0001976999999999,53.2188,143.0933,50.8796,309.2372,0.00024628,3.635e-05,0.0,0 STARLINK-3997,1 52609U 22052M   22276.90610472  .00003635  00000-0  24628-3 0  9993,2 52609  53.2188 143.0933 0001977  50.8796 309.2372 15.08855799 22101,6917.831999999999,95.437,541.065,538.3290000000002,0.0
52609.0,STARLINK-3997,PAYLOAD,2022-10-04 10:27:54,15.08838378,0.0002005999999999,53.2176,140.7159,51.6162,308.501,0.00079523,0.0001239,0.0,0 STARLINK-3997,1 52609U 22052M   22277.43604190  .00012390  00000-0  79523-3 0  9994,2 52609  53.2176 140.7159 0002006  51.6162 308.5010 15.08838378 22185,6917.885,95.438,541.138,538.363,0.0
52609.0,STARLINK-3997,PAYLOAD,2022-10-04 21:35:35,15.08841525,0.0001823,53.2183,138.6337,46.7098,313.4046,9.7169e-05,1.259e-05,0.0,0 STARLINK-3997,1 52609U 22052M   22277.89971528  .00001259  00000-0  97169-4 0  9995,2 52609  53.2183 138.6337 0001823  46.7098 313.4046 15.08841525 21884,6917.876,95.437,541.002,538.48,0.0
52609.0,STARLINK-3997,PAYLOAD,2022-10-05 10:18:40,15.0884922,0.0001998,53.2179,136.2547,46.5917,313.5241,0.00010449,1.376e-05,0.0,0 STARLINK-3997,1 52609U 22052M   22278.42963012  .00001376  00000-0  10449-3 0  9999,2 52609  53.2179 136.2547 0001998  46.5917 313.5241 15.08849220 21964,6917.852,95.437,541.099,538.335,0.0
52609.0,STARLINK-3997,PAYLOAD,2022-10-05 16:40:12,15.08844203,0.0001879,53.2173,135.0637,49.6338,310.4818,-1.7842e-05,-5.72e-06,0.0,0 STARLINK-3997,1 52609U 22052M   22278.69459285 -.00000572  00000-0 -17842-4 0  9994,2 52609  53.2173 135.0637 0001879  49.6338 310.4818 15.08844203 22372,6917.868,95.437,541.0319999999998,538.433,0.0
52609.0,STARLINK-3997,PAYLOAD,2022-10-05 19:50:59,15.08832497,0.0001581,53.2182,134.4679,58.6277,301.487,-0.00021364,-3.686e-05,0.0,0 STARLINK-3997,1 52609U 22052M   22278.82707704 -.00003686  00000-0 -21364-3 0  9993,2 52609  53.2182 134.4679 0001581  58.6277 301.4870 15.08832497 22025,6917.903,95.438,540.862,538.675,0.0
52609.0,STARLINK-3997,PAYLOAD,2022-10-06 00:37:08,15.08831391,0.0001656,53.2183,133.5769,51.4945,308.6195,-0.00024144,-4.128e-05,0.0,0 STARLINK-3997,1 52609U 22052M   22279.02579857 -.00004128  00000-0 -24144-3 0  9993,2 52609  53.2183 133.5769 0001656  51.4945 308.6195 15.08831391 22427,6917.906999999997,95.438,540.9169999999998,538.626,0.0
52609.0,STARLINK-3997,PAYLOAD,2022-10-06 10:09:27,15.088341,0.0001656,53.2181,131.7938,44.1531,315.9593,5.7906e-05,6.34e-06,0.0,0 STARLINK-3997,1 52609U 22052M   22279.42323906  .00000634  00000-0  57906-4 0  9998,2 52609  53.2181 131.7938 0001656  44.1531 315.9593 15.08834100 22113,6917.898,95.438,540.909,538.618,0.0
52609.0,STARLINK-3997,PAYLOAD,2022-10-06 18:06:23,15.08843552,0.0001636,53.2179,130.3068,46.7319,313.381,0.00019683,2.846e-05,0.0,0 STARLINK-3997,1 52609U 22052M   22279.75443554  .00002846  00000-0  19683-3 0  9992,2 52609  53.2179 130.3068 0001636  46.7319 313.3810 15.08843552 22530,6917.87,95.437,540.866,538.6030000000002,0.0
52609.0,STARLINK-3997,PAYLOAD,2022-10-06 19:41:46,15.08840672,0.000146,53.2181,130.0091,47.7876,312.3239,0.0001388,1.922e-05,0.0,0 STARLINK-3997,1 52609U 22052M   22279.82067622  .00001922  00000-0  13880-3 0  9995,2 52609  53.2181 130.0091 0001460  47.7876 312.3239 15.08840672 22174,6917.878000000002,95.438,540.753,538.7330000000002,0.0
52609.0,STARLINK-3997,PAYLOAD,2022-10-07 00:27:56,15.08835011,0.0001614,53.218,129.1176,44.732,315.3802,9.3469e-05,1.2e-05,0.0,0 STARLINK-3997,1 52609U 22052M   22280.01940019  .00001200  00000-0  93469-4 0  9999,2 52609  53.2180 129.1176 0001614  44.7320 315.3802 15.08835011 22572,6917.896,95.438,540.877,538.644,0.0
52609.0,STARLINK-3997,PAYLOAD,2022-10-07 11:35:37,15.08843402,0.0001545,53.2188,127.0366,39.3449,320.7655,0.0001588,2.24e-05,0.0,0 STARLINK-3997,1 52609U 22052M   22280.48307598  .00002240  00000-0  15880-3 0  9994,2 52609  53.2188 127.0366 0001545  39.3449 320.7655 15.08843402 22279,6917.87,95.437,540.804,538.6659999999998,0.0
52609.0,STARLINK-3997,PAYLOAD,2022-10-07 21:07:57,15.08837593,0.0001883,53.2182,125.2523,41.5106,318.6029,0.00017191,2.449e-05,0.0,0 STARLINK-3997,1 52609U 22052M   22280.88052267  .00002449  00000-0  17191-3 0  9996,2 52609  53.2182 125.2523 0001883  41.5106 318.6029 15.08837593 22330,6917.888000000001,95.438,541.055,538.45,0.0
52609.0,STARLINK-3997,PAYLOAD,2022-10-08 08:15:39,15.08839144,0.0001733999999999,53.2174,123.1712,47.1049,313.0088,0.00011582,1.556e-05,0.0,0 STARLINK-3997,1 52609U 22052M   22281.34420222  .00001556  00000-0  11582-3 0  9994,2 52609  53.2174 123.1712 0001734  47.1049 313.0088 15.08839144 22777,6917.8830000000025,95.438,540.948,538.548,0.0
52609.0,STARLINK-3997,PAYLOAD,2022-10-08 11:26:25,15.08837229,0.0001819,53.2172,122.5766,45.1525,314.9615,0.00010833,1.436e-05,0.0,0 STARLINK-3997,1 52609U 22052M   22281.47668389  .00001436  00000-0  10833-3 0  9991,2 52609  53.2172 122.5766 0001819  45.1525 314.9615 15.08837229 22428,6917.889,95.438,541.012,538.495,0.0
